MALLIGYONG-1            
1 58400U 23179A   24068.19370658  .00006420  00000+0  28962-3 0  9999
2 58400  97.4189 316.5495 0007829 253.6326 106.4050 15.21328626 16361
